NORAD_CAT_ID,OBJECT_NAME,OBJECT_TYPE,EPOCH,MEAN_MOTION,ECCENTRICITY,INCLINATION,RA_OF_ASC_NODE,ARG_OF_PERICENTER,MEAN_ANOMALY,BSTAR,MEAN_MOTION_DOT,MEAN_MOTION_DDOT,TLE_LINE0,TLE_LINE1,TLE_LINE2,SEMIMAJOR_AXIS,PERIOD,APOGEE,PERIGEE,DECAYED
52560.0,STARLINK-3956,PAYLOAD,2022-11-26 12:06:21,15.08847393,0.0002391,53.217,102.4766,41.578,318.5394,6.8494e-05,8.02e-06,0.0,0 STARLINK-3956,1 52560U 22051AD  22330.50441626  .00000802  00000-0  68494-4 0  9991,2 52560  53.2170 102.4766 0002391  41.5780 318.5394 15.08847393 30615,6917.858,95.437,541.377,538.069,0.0
52560.0,STARLINK-3956,PAYLOAD,2022-11-26 15:17:07,15.08852876,0.0001982,53.2169,101.8807,46.6585,313.4572,0.00010321,1.355e-05,0.0,0 STARLINK-3956,1 52560U 22051AD  22330.63688963  .00001355  00000-0  10321-3 0  9991,2 52560  53.2169 101.8807 0001982  46.6585 313.4572 15.08852876 30564,6917.840999999999,95.437,541.077,538.335,0.0
52560.0,STARLINK-3956,PAYLOAD,2022-11-27 15:07:54,15.08842039,0.0001929,53.2172,97.4192,47.0878,313.0276,-5.1075e-05,-1.101e-05,0.0,0 STARLINK-3956,1 52560U 22051AD  22331.63049530 -.00001101  00000-0 -51075-4 0  9996,2 52560  53.2172  97.4192 0001929  47.0878 313.0276 15.08842039 30787,6917.874,95.437,541.0740000000002,538.405,0.0
52560.0,STARLINK-3956,PAYLOAD,2022-11-28 03:50:59,15.08838413,0.0001955,53.2182,95.0406,39.7675,320.346,6.6522e-06,-1.82e-06,0.0,0 STARLINK-3956,1 52560U 22051AD  22332.16041628 -.00000182  00000-0  66522-5 0  9996,2 52560  53.2182  95.0406 0001955  39.7675 320.3460 15.08838413 30790,6917.885,95.438,541.1030000000002,538.398,0.0
52560.0,STARLINK-3956,PAYLOAD,2022-11-28 18:09:28,15.08834601,0.0001823,53.2184,92.3643,39.5936,320.5189,-4.288100000000001e-05,-9.7e-06,0.0,0 STARLINK-3956,1 52560U 22051AD  22332.75658013 -.00000970  00000-0 -42881-4 0  9990,2 52560  53.2184  92.3643 0001823  39.5936 320.5189 15.08834601 30950,6917.897,95.438,541.023,538.501,0.0
52560.0,STARLINK-3956,PAYLOAD,2022-11-29 18:00:15,15.08836074,0.0002123,53.2188,87.9047,34.1721,325.9408,0.00013823,1.912e-05,0.0,0 STARLINK-3956,1 52560U 22051AD  22333.75017564  .00001912  00000-0  13823-3 0  9999,2 52560  53.2188  87.9047 0002123  34.1721 325.9408 15.08836074 31106,6917.892,95.438,541.226,538.289,0.0
52560.0,STARLINK-3956,PAYLOAD,2022-11-30 13:04:52,15.08841685,0.0002022,53.2181,84.3348,37.5723,322.541,0.00010369,1.363e-05,0.0,0 STARLINK-3956,1 52560U 22051AD  22334.54505503  .00001363  00000-0  10369-3 0  9994,2 52560  53.2181  84.3348 0002022  37.5723 322.5410 15.08841685 31156,6917.875,95.437,541.139,538.341,0.0
52560.0,STARLINK-3956,PAYLOAD,2022-11-30 17:51:03,15.08824088,0.0001796,53.2186,83.4425,44.5095,315.6041,1.2541e-05,-8.9e-07,0.0,0 STARLINK-3956,1 52560U 22051AD  22334.74378907 -.00000089  00000-0  12541-4 0  9992,2 52560  53.2186  83.4425 0001796  44.5095 315.6041 15.08824088 31256,6917.929,95.439,541.036,538.552,0.0
52560.0,STARLINK-3956,PAYLOAD,2022-12-01 03:23:21,15.08838101,0.0001883,53.2187,81.6587,43.6486,316.4655,5.0631e-05,5.18e-06,0.0,0 STARLINK-3956,1 52560U 22051AD  22335.14122142  .00000518  00000-0  50631-4 0  9993,2 52560  53.2187  81.6587 0001883  43.6486 316.4655 15.08838101 31315,6917.886,95.438,541.054,538.4490000000002,0.0
52560.0,STARLINK-3956,PAYLOAD,2022-12-01 14:31:03,15.08843922,0.0001977,53.2185,79.5774,47.3194,312.7964,7.665e-05,9.32e-06,0.0,0 STARLINK-3956,1 52560U 22051AD  22335.60489712  .00000932  00000-0  76650-4 0  9992,2 52560  53.2185  79.5774 0001977  47.3194 312.7964 15.08843922 31317,6917.868,95.437,541.101,538.366,0.0
52560.0,STARLINK-3956,PAYLOAD,2022-12-01 19:17:12,15.0884238,0.0001683,53.2184,78.6852,44.1429,315.9697,-4.7534e-06,-3.64e-06,0.0,0 STARLINK-3956,1 52560U 22051AD  22335.80361879 -.00000364  00000-0 -47534-5 0  9998,2 52560  53.2184  78.6852 0001683  44.1429 315.9697 15.08842380 31341,6917.873000000001,95.437,540.9019999999998,538.5740000000002,0.0
52560.0,STARLINK-3956,PAYLOAD,2022-12-02 06:24:55,15.08833443,0.0001982,53.2186,76.6044,45.6199,314.4955,3.6191e-05,2.88e-06,0.0,0 STARLINK-3956,1 52560U 22051AD  22336.26730536  .00000288  00000-0  36191-4 0  9998,2 52560  53.2186  76.6044 0001982  45.6199 314.4955 15.08833443 31482,6917.9,95.438,541.137,538.394,0.0
52560.0,STARLINK-3956,PAYLOAD,2022-12-02 08:00:18,15.08834834,0.0001891,53.2185,76.3066,45.1975,314.9171,-2.8861e-06,-3.34e-06,0.0,0 STARLINK-3956,1 52560U 22051AD  22336.33354563 -.00000334  00000-0 -28861-5 0  9998,2 52560  53.2185  76.3066 0001891  45.1975 314.9171 15.08834834 31422,6917.896,95.438,541.069,538.453,0.0
52560.0,STARLINK-3956,PAYLOAD,2022-12-02 20:43:23,15.08840684,0.0001985,53.2186,73.9281,43.7984,316.3165,-1.0799e-06,-3.05e-06,0.0,0 STARLINK-3956,1 52560U 22051AD  22336.86346237 -.00000305  00000-0 -10799-5 0  9994,2 52560  53.2186  73.9281 0001985  43.7984 316.3165 15.08840684 31501,6917.878000000002,95.438,541.116,538.37,0.0
52560.0,STARLINK-3956,PAYLOAD,2022-12-03 12:37:14,15.08841413,0.0001972,53.2186,70.9543,43.8952,316.2197,3.584e-05,2.82e-06,0.0,0 STARLINK-3956,1 52560U 22051AD  22337.52586380  .00000282  00000-0  35840-4 0  9998,2 52560  53.2186  70.9543 0001972  43.8952 316.2197 15.08841413 31674,6917.876,95.437,541.105,538.377,0.0
52560.0,STARLINK-3956,PAYLOAD,2022-12-03 15:48:00,15.0884454,0.0002067,53.2186,70.3598,42.8504,317.2649,6.0913e-05,6.81e-06,0.0,0 STARLINK-3956,1 52560U 22051AD  22337.65834157  .00000681  00000-0  60913-4 0  9992,2 52560  53.2186  70.3598 0002067  42.8504 317.2649 15.08844540 31628,6917.8669999999975,95.437,541.161,538.302,0.0
52560.0,STARLINK-3956,PAYLOAD,2022-12-03 20:34:09,15.08849979,0.0002033,53.2186,69.4677,42.7448,317.3702,7.4749e-05,9.02e-06,0.0,0 STARLINK-3956,1 52560U 22051AD  22337.85705707  .00000902  00000-0  74749-4 0  9990,2 52560  53.2186  69.4677 0002033  42.7448 317.3702 15.08849979 31727,6917.85,95.437,541.121,538.308,0.0
52560.0,STARLINK-3956,PAYLOAD,2022-12-04 02:55:42,15.0884031,0.0002004,53.2186,68.2784,42.3554,317.7593,8.549299999999999e-05,1.073e-05,0.0,0 STARLINK-3956,1 52560U 22051AD  22338.12202411  .00001073  00000-0  85493-4 0  9993,2 52560  53.2186  68.2784 0002004  42.3554 317.7593 15.08840310 31761,6917.879,95.438,541.131,538.3580000000002,0.0
52560.0,STARLINK-3956,PAYLOAD,2022-12-04 12:28:01,15.0883962,0.0001968,53.2187,66.4942,40.6249,319.4889,0.00016179,2.288e-05,0.0,0 STARLINK-3956,1 52560U 22051AD  22338.51946401  .00002288  00000-0  16179-3 0  9993,2 52560  53.2187  66.4942 0001968  40.6249 319.4889 15.08839620 31756,6917.882,95.438,541.1080000000002,538.385,0.0
52560.0,STARLINK-3956,PAYLOAD,2022-12-04 20:24:57,15.08854412,0.0002017,53.218,65.0072,39.7081,320.4059,0.0003562,5.388e-05,0.0,0 STARLINK-3956,1 52560U 22051AD  22338.85065980  .00005388  00000-0  35620-3 0  9990,2 52560  53.2180  65.0072 0002017  39.7081 320.4059 15.08854412 31800,6917.8359999999975,95.437,541.097,538.306,0.0
52560.0,STARLINK-3956,PAYLOAD,2022-12-05 04:21:52,15.08847937,0.0002055,53.2179,63.5204,36.4615,323.6517,0.0002488,3.675e-05,0.0,0 STARLINK-3956,1 52560U 22051AD  22339.18186240  .00003675  00000-0  24880-3 0  9993,2 52560  53.2179  63.5204 0002055  36.4615 323.6517 15.08847937 31928,6917.856,95.437,541.143,538.3,0.0
52560.0,STARLINK-3956,PAYLOAD,2022-12-05 12:18:48,15.08856726,0.0002024,53.218,62.0335,36.1753,323.9375,0.00037301,5.656e-05,0.0,0 STARLINK-3956,1 52560U 22051AD  22339.51305710  .00005656  00000-0  37301-3 0  9998,2 52560  53.2180  62.0335 0002024  36.1753 323.9375 15.08856726 31904,6917.829000000002,95.436,541.094,538.294,0.0
52560.0,STARLINK-3956,PAYLOAD,2022-12-05 18:40:20,15.0884583,0.0001993,53.2181,60.8442,36.0172,324.0954,8.996899999999999e-05,1.144e-05,0.0,0 STARLINK-3956,1 52560U 22051AD  22339.77801916  .00001144  00000-0  89969-4 0  9991,2 52560  53.2181  60.8442 0001993  36.0172 324.0954 15.08845830 31941,6917.863,95.437,541.106,538.349,0.0
52560.0,STARLINK-3956,PAYLOAD,2022-12-06 05:48:02,15.08851243,0.0002048,53.2181,58.7627,37.3155,322.7979,0.0001274999999999,1.742e-05,0.0,0 STARLINK-3956,1 52560U 22051AD  22340.24169431  .00001742  00000-0  12750-3 0  9991,2 52560  53.2181  58.7627 0002048  37.3155 322.7979 15.08851243 32082,6917.846,95.437,541.128,538.294,0.0
52560.0,STARLINK-3956,PAYLOAD,2022-12-06 12:09:35,15.08833563,0.0002007,53.2183,57.5733,35.5007,324.6118,-6.1092e-05,-1.26e-05,0.0,0 STARLINK-3956,1 52560U 22051AD  22340.50666280 -.00001260  00000-0 -61092-4 0  9995,2 52560  53.2183  57.5733 0002007  35.5007 324.6118 15.08833563 32058,6917.9,95.438,541.153,538.377,0.0
52560.0,STARLINK-3956,PAYLOAD,2022-12-06 13:44:58,15.08833361,0.0002031,53.2183,57.2761,35.451,324.6617,-8.4357e-05,-1.63e-05,0.0,0 STARLINK-3956,1 52560U 22051AD  22340.57290285 -.00001630  00000-0 -84357-4 0  9990,2 52560  53.2183  57.2761 0002031  35.4510 324.6617 15.08833361 32130,6917.901,95.438,541.1709999999998,538.361,0.0
52560.0,STARLINK-3956,PAYLOAD,2022-12-06 20:06:32,15.08822249,0.0002006,53.2186,56.087,35.1847,324.9277,-0.00013573,-2.447e-05,0.0,0 STARLINK-3956,1 52560U 22051AD  22340.83787803 -.00002447  00000-0 -13573-3 0  9994,2 52560  53.2186  56.0870 0002006  35.1847 324.9277 15.08822249 32108,6917.935,95.439,541.187,538.4119999999998,0.0
52560.0,STARLINK-3956,PAYLOAD,2022-12-07 07:14:14,15.0882706,0.0002067,53.2186,54.0053,35.6794,324.4336,-6.5955e-05,-1.337e-05,0.0,0 STARLINK-3956,1 52560U 22051AD  22341.30155722 -.00001337  00000-0 -65955-4 0  9995,2 52560  53.2186  54.0053 0002067  35.6794 324.4336 15.08827060 32244,6917.92,95.438,541.215,538.355,0.0
52560.0,STARLINK-3956,PAYLOAD,2022-12-07 13:35:46,15.08833977,0.0002038,53.2186,52.8162,36.6282,323.4849,-1.8893e-05,-5.89e-06,0.0,0 STARLINK-3956,1 52560U 22051AD  22341.56651394 -.00000589  00000-0 -18893-4 0  9996,2 52560  53.2186  52.8162 0002038  36.6282 323.4849 15.08833977 32211,6917.899,95.438,541.174,538.354,0.0
